start=new Date('2023-01-27T00:00:00.000Z').valueOf();
sats=[{"EPHEMERIS_TYPE":"0","GP_ID":"223760173","RCS_SIZE":"LARGE","MEAN_ELEMENT_THEORY":"SGP4","MEAN_MOTION_DOT":"0.00001063","APOAPSIS":"540.797","TLE_LINE1":"1 54062U 22136M   23026.34915037  .00001063  00000-0  84889-4 0  9997","TIME_SYSTEM":"UTC","PERIAPSIS":"538.660","DECAY_DATE":null,"RA_OF_ASC_NODE":"54.3005","BSTAR":"0.00008488900000","COUNTRY_CODE":"US","CLASSIFICATION_TYPE":"U","OBJECT_NAME":"STARLINK-5170","OBJECT_TYPE":"PAYLOAD","MEAN_MOTION":"15.08845494","REV_AT_EPOCH":"1499","SEMIMAJOR_AXIS":"6917.864","NORAD_CAT_ID":"54062","LAUNCH_DATE":"2022-10-20","SITE":"AFETR","CENTER_NAME":"EARTH","MEAN_MOTION_DDOT":"0.0000000000000","OBJECT_ID":"2022-136M","EPOCH":"2023-01-26T08:22:46.591968","ELEMENT_SET_NO":"999","PERIOD":"95.437","ARG_OF_PERICENTER":"88.7296","MEAN_ANOMALY":"271.3873","INCLINATION":"53.2178","FILE":"3761951","TLE_LINE2":"2 54062  53.2178  54.3005 0001545  88.7296 271.3873 15.08845494 14999","REF_FRAME":"TEME","ECCENTRICITY":"0.00015450"},{"ELEMENT_SET_NO":"999","ARG_OF_PERICENTER":"106.5064","PERIOD":"95.437","MEAN_ANOMALY":"253.6067","INCLINATION":"53.2183","FILE":"3761951","TLE_LINE2":"2 54063  53.2183  54.2730 0001263 106.5064 253.6067 15.08844511 14996","REF_FRAME":"TEME","ECCENTRICITY":"0.00012630","NORAD_CAT_ID":"54063","LAUNCH_DATE":"2022-10-20","SITE":"AFETR","OBJECT_ID":"2022-136N","MEAN_MOTION_DDOT":"0.0000000000000","CENTER_NAME":"EARTH","EPOCH":"2023-01-26T08:17:28.326336","COUNTRY_CODE":"US","CLASSIFICATION_TYPE":"U","OBJECT_NAME":"STARLINK-5225","OBJECT_TYPE":"PAYLOAD","MEAN_MOTION":"15.08844511","REV_AT_EPOCH":"1499","SEMIMAJOR_AXIS":"6917.867","EPHEMERIS_TYPE":"0","RCS_SIZE":"LARGE","GP_ID":"223760401","MEAN_ELEMENT_THEORY":"SGP4","MEAN_MOTION_DOT":"0.00001438","APOAPSIS":"540.605","TIME_SYSTEM":"UTC","TLE_LINE1":"1 54063U 22136N   23026.34546674  .00001438  00000-0  10842-3 0  9998","DECAY_DATE":null,"PERIAPSIS":"538.858","RA_OF_ASC_NODE":"54.2730","BSTAR":"0.00010842000000"},{"TLE_LINE2":"2 54064  53.2162  23.9107 0001123  78.0458 282.0688 15.73219851 15902","REF_FRAME":"TEME","ECCENTRICITY":"0.00011230","FILE":"3762052","INCLINATION":"53.2162","MEAN_ANOMALY":"282.0688","ARG_OF_PERICENTER":"78.0458","PERIOD":"91.532","ELEMENT_SET_NO":"999","EPOCH":"2023-01-26T09:39:56.079360","MEAN_MOTION_DDOT":"0.0000000000000","OBJECT_ID":"2022-136P","CENTER_NAME":"EARTH","SITE":"AFETR","LAUNCH_DATE":"2022-10-20","NORAD_CAT_ID":"54064","SEMIMAJOR_AXIS":"6727.839","REV_AT_EPOCH":"1590","MEAN_MOTION":"15.73219851","OBJECT_TYPE":"PAYLOAD","OBJECT_NAME":"STARLINK-5172","CLASSIFICATION_TYPE":"U","COUNTRY_CODE":"US","BSTAR":"0.00001028400000","PERIAPSIS":"348.948","DECAY_DATE":null,"RA_OF_ASC_NODE":"23.9107","TIME_SYSTEM":"UTC","TLE_LINE1":"1 54064U 22136P   23026.40273240  .00000825  00000-0  10284-4 0  9992","APOAPSIS":"350.459","MEAN_MOTION_DOT":"0.00000825","MEAN_ELEMENT_THEORY":"SGP4","GP_ID":"223762529","RCS_SIZE":"LARGE","EPHEMERIS_TYPE":"0"},{"SEMIMAJOR_AXIS":"6917.848","REV_AT_EPOCH":"1501","MEAN_MOTION":"15.08850727","OBJECT_TYPE":"PAYLOAD","OBJECT_NAME":"STARLINK-5187","COUNTRY_CODE":"US","CLASSIFICATION_TYPE":"U","BSTAR":"0.00004005600000","DECAY_DATE":null,"PERIAPSIS":"538.837","RA_OF_ASC_NODE":"53.6344","TLE_LINE1":"1 54065U 22136Q   23026.47057468  .00000350  00000-0  40056-4 0  9995","TIME_SYSTEM":"UTC","APOAPSIS":"540.588","MEAN_MOTION_DOT":"0.00000350","MEAN_ELEMENT_THEORY":"SGP4","RCS_SIZE":"LARGE","GP_ID":"223758921","EPHEMERIS_TYPE":"0","ECCENTRICITY":"0.00012650","TLE_LINE2":"2 54065  53.2181  53.6344 0001265 100.7138 259.3997 15.08850727 15015","REF_FRAME":"TEME","FILE":"3761951","INCLINATION":"53.2181","MEAN_ANOMALY":"259.3997","PERIOD":"95.437","ARG_OF_PERICENTER":"100.7138","ELEMENT_SET_NO":"999","EPOCH":"2023-01-26T11:17:37.652352","CENTER_NAME":"EARTH","MEAN_MOTION_DDOT":"0.0000000000000","OBJECT_ID":"2022-136Q","SITE":"AFETR","LAUNCH_DATE":"2022-10-20","NORAD_CAT_ID":"54065"},{"MEAN_MOTION":"15.08847185","REV_AT_EPOCH":"1555","SEMIMAJOR_AXIS":"6917.858","COUNTRY_CODE":"US","CLASSIFICATION_TYPE":"U","OBJECT_NAME":"STARLINK-5151","OBJECT_TYPE":"PAYLOAD","APOAPSIS":"540.511","TIME_SYSTEM":"UTC","TLE_LINE1":"1 54066U 22136R   23026.87170717  .00005414  00000-0  35789-3 0  9995","DECAY_DATE":null,"PERIAPSIS":"538.935","RA_OF_ASC_NODE":"51.8741","BSTAR":"0.00035789000000","EPHEMERIS_TYPE":"0","GP_ID":"223769607","RCS_SIZE":"LARGE","MEAN_ELEMENT_THEORY":"SGP4","MEAN_MOTION_DOT":"0.00005414","PERIOD":"95.437","ARG_OF_PERICENTER":"95.0130","MEAN_ANOMALY":"265.0992","INCLINATION":"53.2167","FILE":"3762337","TLE_LINE2":"2 54066  53.2167  51.8741 0001139  95.0130 265.0992 15.08847185 15551","REF_FRAME":"TEME","ECCENTRICITY":"0.00011390","ELEMENT_SET_NO":"999","SITE":"AFETR","MEAN_MOTION_DDOT":"0.0000000000000","OBJECT_ID":"2022-136R","CENTER_NAME":"EARTH","EPOCH":"2023-01-26T20:55:15.499488","NORAD_CAT_ID":"54066","LAUNCH_DATE":"2022-10-20"},{"MEAN_ELEMENT_THEORY":"SGP4","MEAN_MOTION_DOT":"0.00000744","EPHEMERIS_TYPE":"0","RCS_SIZE":"LARGE","GP_ID":"223769431","RA_OF_ASC_NODE":"51.5088","DECAY_DATE":null,"PERIAPSIS":"538.985","BSTAR":"0.00006483500000","APOAPSIS":"540.511","TIME_SYSTEM":"UTC","TLE_LINE1":"1 54067U 22136S   23026.92689198  .00000744  00000-0  64835-4 0  9996","OBJECT_NAME":"STARLINK-5174","OBJECT_TYPE":"PAYLOAD","COUNTRY_CODE":"US","CLASSIFICATION_TYPE":"U","REV_AT_EPOCH":"1556","SEMIMAJOR_AXIS":"6917.883","MEAN_MOTION":"15.08839105","NORAD_CAT_ID":"54067","LAUNCH_DATE":"2022-10-20","OBJECT_ID":"2022-136S","MEAN_MOTION_DDOT":"0.0000000000000","CENTER_NAME":"EARTH","EPOCH":"2023-01-26T22:14:43.467072","SITE":"AFETR","ELEMENT_SET_NO":"999","FILE":"3762337","INCLINATION":"53.2175","TLE_LINE2":"2 54067  53.2175  51.5088 0001103  95.7490 264.3628 15.08839105 15561","REF_FRAME":"TEME","ECCENTRICITY":"0.00011030","PERIOD":"95.438","ARG_OF_PERICENTER":"95.7490","MEAN_ANOMALY":"264.3628"},{"FILE":"3762337","INCLINATION":"53.2160","ECCENTRICITY":"0.00011780","TLE_LINE2":"2 54068  53.2160  51.5272 0001178  82.5798 277.5328 15.08846196 15569","REF_FRAME":"TEME","PERIOD":"95.437","ARG_OF_PERICENTER":"82.5798","MEAN_ANOMALY":"277.5328","ELEMENT_SET_NO":"999","MEAN_MOTION_DDOT":"0.0000000000000","OBJECT_ID":"2022-136T","CENTER_NAME":"EARTH","EPOCH":"2023-01-26T22:20:02.034240","SITE":"AFETR","NORAD_CAT_ID":"54068","LAUNCH_DATE":"2022-10-20","REV_AT_EPOCH":"1556","SEMIMAJOR_AXIS":"6917.861","MEAN_MOTION":"15.08846196","OBJECT_NAME":"STARLINK-5222","OBJECT_TYPE":"PAYLOAD","CLASSIFICATION_TYPE":"U","COUNTRY_CODE":"US","DECAY_DATE":null,"RA_OF_ASC_NODE":"51.5272","PERIAPSIS":"538.912","BSTAR":"0.00028105000000","APOAPSIS":"540.541","TIME_SYSTEM":"UTC","TLE_LINE1":"1 54068U 22136T   23026.93057910  .00004189  00000-0  28105-3 0  9995","MEAN_ELEMENT_THEORY":"SGP4","MEAN_MOTION_DOT":"0.00004189","EPHEMERIS_TYPE":"0","RCS_SIZE":"LARGE","GP_ID":"223769438"},{"NORAD_CAT_ID":"54069","LAUNCH_DATE":"2022-10-20","SITE":"AFETR","OBJECT_ID":"2022-136U","MEAN_MOTION_DDOT":"0.0000000000000","CENTER_NAME":"EARTH","EPOCH":"2023-01-27T01:09:34.884288","ELEMENT_SET_NO":"999","ARG_OF_PERICENTER":"83.6924","PERIOD":"95.437","MEAN_ANOMALY":"276.4232","INCLINATION":"53.2190","FILE":"3762338","REF_FRAME":"TEME","TLE_LINE2":"2 54069  53.2190  50.8431 0001436  83.6924 276.4232 15.08841079 15581","ECCENTRICITY":"0.00014360","EPHEMERIS_TYPE":"0","GP_ID":"223769629","RCS_SIZE":"LARGE","MEAN_ELEMENT_THEORY":"SGP4","MEAN_MOTION_DOT":"0.00001436","APOAPSIS":"540.735","TIME_SYSTEM":"UTC","TLE_LINE1":"1 54069U 22136U   23027.04832042  .00001436  00000-0  10827-3 0  9990","DECAY_DATE":null,"RA_OF_ASC_NODE":"50.8431","PERIAPSIS":"538.749","BSTAR":"0.00010827000000","CLASSIFICATION_TYPE":"U","COUNTRY_CODE":"US","OBJECT_NAME":"STARLINK-5223","OBJECT_TYPE":"PAYLOAD","MEAN_MOTION":"15.08841079","REV_AT_EPOCH":"1558","SEMIMAJOR_AXIS":"6917.877"},{"LAUNCH_DATE":"2022-10-20","NORAD_CAT_ID":"54070","EPOCH":"2023-01-26T09:27:42.770592","MEAN_MOTION_DDOT":"0.0000000000000","OBJECT_ID":"2022-136V","CENTER_NAME":"EARTH","SITE":"AFETR","ELEMENT_SET_NO":"999","TLE_LINE2":"2 54070  53.2178  53.8733 0001397  92.9920 267.1232 15.08844176 15007","ECCENTRICITY":"0.00013970","REF_FRAME":"TEME","FILE":"3761951","INCLINATION":"53.2178","MEAN_ANOMALY":"267.1232","PERIOD":"95.437","ARG_OF_PERICENTER":"92.9920","MEAN_MOTION_DOT":"0.00002458","MEAN_ELEMENT_THEORY":"SGP4","RCS_SIZE":"LARGE","GP_ID":"223760174","EPHEMERIS_TYPE":"0","BSTAR":"0.00017243000000","DECAY_DATE":null,"PERIAPSIS":"538.766","RA_OF_ASC_NODE":"53.8733","TIME_SYSTEM":"UTC","TLE_LINE1":"1 54070U 22136V   23026.39424503  .00002458  00000-0  17243-3 0  9992","APOAPSIS":"540.699","OBJECT_TYPE":"PAYLOAD","OBJECT_NAME":"STARLINK-5181","CLASSIFICATION_TYPE":"U","COUNTRY_CODE":"US","SEMIMAJOR_AXIS":"6917.868","REV_AT_EPOCH":"1500","MEAN_MOTION":"15.08844176"},{"CLASSIFICATION_TYPE":"U","COUNTRY_CODE":"US","OBJECT_NAME":"STARLINK-5168","OBJECT_TYPE":"PAYLOAD","MEAN_MOTION":"15.08829365","REV_AT_EPOCH":"1558","SEMIMAJOR_AXIS":"6917.913","EPHEMERIS_TYPE":"0","GP_ID":"223769617","RCS_SIZE":"LARGE","MEAN_ELEMENT_THEORY":"SGP4","MEAN_MOTION_DOT":"0.00000360","APOAPSIS":"540.692","TLE_LINE1":"1 54071U 22136W   23027.05200932  .00000360  00000-0  40699-4 0  9997","TIME_SYSTEM":"UTC","PERIAPSIS":"538.864","DECAY_DATE":null,"RA_OF_ASC_NODE":"50.8644","BSTAR":"0.00004069900000","ELEMENT_SET_NO":"999","PERIOD":"95.438","ARG_OF_PERICENTER":"94.3990","MEAN_ANOMALY":"265.7153","FILE":"3762338","INCLINATION":"53.2190","TLE_LINE2":"2 54071  53.2190  50.8644 0001321  94.3990 265.7153 15.08829365 15582","ECCENTRICITY":"0.00013210","REF_FRAME":"TEME","NORAD_CAT_ID":"54071","LAUNCH_DATE":"2022-10-20","SITE":"AFETR","CENTER_NAME":"EARTH","MEAN_MOTION_DDOT":"0.0000000000000","OBJECT_ID":"2022-136W","EPOCH":"2023-01-27T01:14:53.605248"}];
